{
  "norad_id": 49492,
  "name": "GAOFEN-11 03",
  "history": [
    {
      "epoch": "2026-03-27T14:47:43.224864Z",
      "apogee_km": 499.1575939911045,
      "perigee_km": 491.264241242513,
      "latitude_deg": 1.4776452552176887e-05,
      "longitude_deg": 86.90158141934505,
      "height_km": 494.36404140981745,
      "semi_major_axis_km": 6873.347917616808,
      "eccentricity": 0.0005742,
      "inclination_deg": 97.2192,
      "raan_deg": 133.8804,
      "arg_perigee_deg": 0.8173,
      "mean_anomaly_deg": 359.3073,
      "mean_motion_rev_day": 15.23527404
    },
    {
      "epoch": "2026-03-30T18:27:23.565600Z",
      "apogee_km": 498.8561300399042,
      "perigee_km": 491.2516316493384,
      "latitude_deg": 2.4022067504326098e-05,
      "longitude_deg": 31.90979904207161,
      "height_km": 494.43349749992205,
      "semi_major_axis_km": 6873.1908808446215,
      "eccentricity": 0.0005532,
      "inclination_deg": 97.2188,
      "raan_deg": 136.914,
      "arg_perigee_deg": 348.18,
      "mean_anomaly_deg": 11.9307,
      "mean_motion_rev_day": 15.23579618
    },
    {
      "epoch": "2026-03-30T23:11:07.239264Z",
      "apogee_km": 498.7652702703199,
      "perigee_km": 491.32367668898405,
      "latitude_deg": 3.444683590732183e-05,
      "longitude_deg": -39.02648048630561,
      "height_km": 494.5128070606802,
      "semi_major_axis_km": 6873.181473479652,
      "eccentricity": 0.00054135,
      "inclination_deg": 97.2188,
      "raan_deg": 137.1039,
      "arg_perigee_deg": 347.5271,
      "mean_anomaly_deg": 12.5832,
      "mean_motion_rev_day": 15.23582746
    },
    {
      "epoch": "2026-03-31T21:15:09.854208Z",
      "apogee_km": 498.6376235841026,
      "perigee_km": 491.3740862150444,
      "latitude_deg": -5.122150403027966e-05,
      "longitude_deg": -10.058939642180668,
      "height_km": 494.624048761696,
      "semi_major_axis_km": 6873.142854899573,
      "eccentricity": 0.0005284,
      "inclination_deg": 97.2184,
      "raan_deg": 137.9886,
      "arg_perigee_deg": 343.578,
      "mean_anomaly_deg": 16.5285,
      "mean_motion_rev_day": 15.23595587
    },
    {
      "epoch": "2026-04-01T20:53:46.212000Z",
      "apogee_km": 498.5288710356208,
      "perigee_km": 491.41795100437866,
      "latitude_deg": 1.224016230019912e-06,
      "longitude_deg": -4.733437092575401,
      "height_km": 494.7412532998195,
      "semi_major_axis_km": 6873.110411019999,
      "eccentricity": 0.0005173,
      "inclination_deg": 97.218,
      "raan_deg": 138.9366,
      "arg_perigee_deg": 339.6893,
      "mean_anomaly_deg": 20.4138,
      "mean_motion_rev_day": 15.23606375
    },
    {
      "epoch": "2026-04-02T20:32:21.634080Z",
      "apogee_km": 498.41666398730194,
      "perigee_km": 491.4116502479683,
      "latitude_deg": -3.6086401557138974e-05,
      "longitude_deg": 0.5958857591585583,
      "height_km": 494.8222966476152,
      "semi_major_axis_km": 6873.051157117635,
      "eccentricity": 0.0005096,
      "inclination_deg": 97.2176,
      "raan_deg": 139.8845,
      "arg_perigee_deg": 335.7929,
      "mean_anomaly_deg": 24.3068,
      "mean_motion_rev_day": 15.23626078
    },
    {
      "epoch": "2026-04-02T23:41:30.249024Z",
      "apogee_km": 498.3927236661111,
      "perigee_km": 491.40202294433493,
      "latitude_deg": -2.865469844439089e-05,
      "longitude_deg": -46.693074866991765,
      "height_km": 494.82456672062517,
      "semi_major_axis_km": 6873.034373305222,
      "eccentricity": 0.00050856,
      "inclination_deg": 97.2175,
      "raan_deg": 140.0109,
      "arg_perigee_deg": 335.2991,
      "mean_anomaly_deg": 24.8002,
      "mean_motion_rev_day": 15.23631659
    },
    {
      "epoch": "2026-04-03T20:10:55.934688Z",
      "apogee_km": 498.28253314358335,
      "perigee_km": 491.41641965366125,
      "latitude_deg": -1.4427831988423537e-05,
      "longitude_deg": 5.9300860582276576,
      "height_km": 494.93099787862155,
      "semi_major_axis_km": 6872.986476398622,
      "eccentricity": 0.0004995,
      "inclination_deg": 97.2172,
      "raan_deg": 140.8326,
      "arg_perigee_deg": 331.6587,
      "mean_anomaly_deg": 28.4378,
      "mean_motion_rev_day": 15.23647586
    },
    {
      "epoch": "2026-04-04T07:12:55.587168Z",
      "apogee_km": 498.229397837501,
      "perigee_km": 491.4226901572474,
      "latitude_deg": 9.566963387162467e-06,
      "longitude_deg": -159.57918819575713,
      "height_km": 494.99334397568657,
      "semi_major_axis_km": 6872.963043997374,
      "eccentricity": 0.00049518,
      "inclination_deg": 97.2171,
      "raan_deg": 141.275,
      "arg_perigee_deg": 329.6173,
      "mean_anomaly_deg": 30.4777,
      "mean_motion_rev_day": 15.23655378
    },
    {
      "epoch": "2026-04-05T14:44:19.383072Z",
      "apogee_km": 498.08882688085123,
      "perigee_km": 491.45111078848913,
      "latitude_deg": -3.347110088081449e-06,
      "longitude_deg": 87.54114709645083,
      "height_km": 495.20052220863215,
      "semi_major_axis_km": 6872.90696883467,
      "eccentricity": 0.00048289,
      "inclination_deg": 97.2168,
      "raan_deg": 142.5391,
      "arg_perigee_deg": 323.6544,
      "mean_anomaly_deg": 36.4365,
      "mean_motion_rev_day": 15.23674025
    },
    {
      "epoch": "2026-04-05T21:02:35.991744Z",
      "apogee_km": 498.06210820058095,
      "perigee_km": 491.4572544898074,
      "latitude_deg": 5.446178005980913e-05,
      "longitude_deg": -7.034284730753113,
      "height_km": 495.2405159867849,
      "semi_major_axis_km": 6872.896681345193,
      "eccentricity": 0.0004805,
      "inclination_deg": 97.2168,
      "raan_deg": 142.7918,
      "arg_perigee_deg": 322.5855,
      "mean_anomaly_deg": 37.5048,
      "mean_motion_rev_day": 15.23677446
    },
    {
      "epoch": "2026-04-06T06:30:00.786816Z",
      "apogee_km": 498.0258444959054,
      "perigee_km": 491.4638918034707,
      "latitude_deg": -7.607657414736802e-05,
      "longitude_deg": -148.89676255499882,
      "height_km": 495.30878397889,
      "semi_major_axis_km": 6872.881868149688,
      "eccentricity": 0.00047738,
      "inclination_deg": 97.2167,
      "raan_deg": 143.171,
      "arg_perigee_deg": 320.7305,
      "mean_anomaly_deg": 39.3585,
      "mean_motion_rev_day": 15.23682372
    },
    {
      "epoch": "2026-04-07T14:01:22.662912Z",
      "apogee_km": 497.924005885915,
      "perigee_km": 491.47536068272257,
      "latitude_deg": 3.447528709832253e-06,
      "longitude_deg": 98.23158043987308,
      "height_km": 495.5361337584442,
      "semi_major_axis_km": 6872.8366832843185,
      "eccentricity": 0.00046914,
      "inclination_deg": 97.2167,
      "raan_deg": 144.4351,
      "arg_perigee_deg": 314.6988,
      "mean_anomaly_deg": 45.3867,
      "mean_motion_rev_day": 15.23697398
    },
    {
      "epoch": "2026-04-07T20:19:38.930304Z",
      "apogee_km": 497.90210938966993,
      "perigee_km": 491.4842605629392,
      "latitude_deg": -2.9751275358805866e-05,
      "longitude_deg": 3.657685666664421,
      "height_km": 495.586963445542,
      "semi_major_axis_km": 6872.830184976305,
      "eccentricity": 0.0004669,
      "inclination_deg": 97.2167,
      "raan_deg": 144.6879,
      "arg_perigee_deg": 313.544,
      "mean_anomaly_deg": 46.5409,
      "mean_motion_rev_day": 15.23699559
    },
    {
      "epoch": "2026-04-08T13:39:53.409888Z",
      "apogee_km": 497.8494358799053,
      "perigee_km": 491.4959356939762,
      "latitude_deg": 6.817489669329542e-05,
      "longitude_deg": 103.5805196407395,
      "height_km": 495.72883302814057,
      "semi_major_axis_km": 6872.8096857869405,
      "eccentricity": 0.00046222,
      "inclination_deg": 97.2168,
      "raan_deg": 145.3831,
      "arg_perigee_deg": 310.1533,
      "mean_anomaly_deg": 49.93,
      "mean_motion_rev_day": 15.23706376
    },
    {
      "epoch": "2026-04-09T21:11:13.610688Z",
      "apogee_km": 497.7232255139297,
      "perigee_km": 491.5336129773568,
      "latitude_deg": 3.889601063724569e-06,
      "longitude_deg": -9.284220118259462,
      "height_km": 496.00706521200067,
      "semi_major_axis_km": 6872.765419245643,
      "eccentricity": 0.0004503,
      "inclination_deg": 97.2168,
      "raan_deg": 146.6471,
      "arg_perigee_deg": 303.9037,
      "mean_anomaly_deg": 56.1772,
      "mean_motion_rev_day": 15.23721097
    },
    {
      "epoch": "2026-04-10T12:56:53.289024Z",
      "apogee_km": 497.681308150969,
      "perigee_km": 491.5329512525377,
      "latitude_deg": -3.569116990342846e-05,
      "longitude_deg": 114.28517467455444,
      "height_km": 496.14456201496665,
      "semi_major_axis_km": 6872.744129701753,
      "eccentricity": 0.0004473,
      "inclination_deg": 97.2167,
      "raan_deg": 147.2791,
      "arg_perigee_deg": 300.6599,
      "mean_anomaly_deg": 59.4197,
      "mean_motion_rev_day": 15.23728177
    },
    {
      "epoch": "2026-04-11T20:28:11.984736Z",
      "apogee_km": 497.62493372227163,
      "perigee_km": 491.5233407746209,
      "latitude_deg": 4.957463897746781e-05,
      "longitude_deg": 1.426605924671389,
      "height_km": 496.4272335344603,
      "semi_major_axis_km": 6872.711137248446,
      "eccentricity": 0.0004439,
      "inclination_deg": 97.2165,
      "raan_deg": 148.543,
      "arg_perigee_deg": 294.2343,
      "mean_anomaly_deg": 65.8431,
      "mean_motion_rev_day": 15.23739149
    },
    {
      "epoch": "2026-04-13T07:08:37.772160Z",
      "apogee_km": 497.5690048942424,
      "perigee_km": 491.52750219526115,
      "latitude_deg": -7.459568321670072e-05,
      "longitude_deg": -158.7146301948831,
      "height_km": 496.77123659526126,
      "semi_major_axis_km": 6872.6852535447515,
      "eccentricity": 0.00043953,
      "inclination_deg": 97.2163,
      "raan_deg": 149.9332,
      "arg_perigee_deg": 286.9889,
      "mean_anomaly_deg": 73.0866,
      "mean_motion_rev_day": 15.23747757
    },
    {
      "epoch": "2026-04-14T20:58:10.582176Z",
      "apogee_km": 497.5189594783769,
      "perigee_km": 491.52737434486335,
      "latitude_deg": -4.715540151789868e-05,
      "longitude_deg": -6.138189926702379,
      "height_km": 497.1488701987937,
      "semi_major_axis_km": 6872.66016691162,
      "eccentricity": 0.0004359,
      "inclination_deg": 97.2159,
      "raan_deg": 151.4498,
      "arg_perigee_deg": 279.2219,
      "mean_anomaly_deg": 80.8525,
      "mean_motion_rev_day": 15.237561
    },
    {
      "epoch": "2026-04-15T20:36:38.237760Z",
      "apogee_km": 497.5072708018597,
      "perigee_km": 491.51157406292987,
      "latitude_deg": -1.0084967145232598e-05,
      "longitude_deg": -0.7765262891450719,
      "height_km": 497.3932972647013,
      "semi_major_axis_km": 6872.6464224323945,
      "eccentricity": 0.0004362,
      "inclination_deg": 97.2156,
      "raan_deg": 152.3976,
      "arg_perigee_deg": 274.2476,
      "mean_anomaly_deg": 85.8263,
      "mean_motion_rev_day": 15.23760671
    }
  ]
}